{"type": "FeatureCollection", "features": [ {"type": "Feature", "properties": {"norad_id": 66906, "name": "1998-067XS", "group": "last-30-days", "lat": 47.33854687185565, "lon": -167.57315970583673, "alt_km": 410.0535355383945, "timestamp": "2025-12-14T14:39:28.134439+00:00", "meta": {"OBJECT_NAME": "1998-067XS", "OBJECT_ID": "1998-067XS", "EPOCH": "2025-12-13T19:47:52.336320", "MEAN_MOTION": 15.50642629, "ECCENTRICITY": 0.00035104, "INCLINATION": 51.6303, "RA_OF_ASC_NODE": 137.0364, "ARG_OF_PERICENTER": 208.0686, "MEAN_ANOMALY": 152.0114, "EPHEMERIS_TYPE": 0, "CLASSIFICATION_TYPE": "U", "NORAD_CAT_ID": 66906, "ELEMENT_SET_NO": 999, "REV_AT_EPOCH": 178, "BSTAR": 0.00053972464, "MEAN_MOTION_DOT": 0.00031181, "MEAN_MOTION_DDOT": 0}, "tle": {"line1": "1 66906U 98067XS  25347.82491130  .00031181  00000+0  53972-3 0  9998", "line2": "2 66906  51.6303 137.0364 0003510 208.0686 152.0114 15.50642629  1780"}}, "geometry": {"type": "Point", "coordinates": [-167.57315970583673, 47.33854687185565]}}, {"type": "Feature", "properties": {"norad_id": 66907, "name": "1998-067XT", "group": "last-30-days", "lat": 51.58599050152631, "lon": -134.51526525004638, "alt_km": 406.97810587421463, "timestamp": "2025-12-14T14:39:28.134449+00:00", "meta": {"OBJECT_NAME": "1998-067XT", "OBJECT_ID": "1998-067XT", "EPOCH": "2025-12-13T16:37:31.235232", "MEAN_MOTION": 15.51604707, "ECCENTRICITY": 0.00043667, "INCLINATION": 51.6303, "RA_OF_ASC_NODE": 137.6541, "ARG_OF_PERICENTER": 232.3065, "MEAN_ANOMALY": 127.7529, "EPHEMERIS_TYPE": 0, "CLASSIFICATION_TYPE": "U", "NORAD_CAT_ID": 66907, "ELEMENT_SET_NO": 999, "REV_AT_EPOCH": 176, "BSTAR": 0.0011074189, "MEAN_MOTION_DOT": 0.00067037, "MEAN_MOTION_DDOT": 0}, "tle": {"line1": "1 66907U 98067XT  25347.69272263  .00067037  00000+0  11074-2 0  9993", "line2": "2 66907  51.6303 137.6541 0004366 232.3065 127.7529 15.51604707  1768"}}, "geometry": {"type": "Point", "coordinates": [-134.51526525004638, 51.58599050152631]}}, {"type": "Feature", "properties": {"norad_id": 66908, "name": "1998-067XU", "group": "last-30-days", "lat": 51.441139235399234, "lon": -130.6226258003241, "alt_km": 406.65720961771785, "timestamp": "2025-12-14T14:39:28.134472+00:00", "meta": {"OBJECT_NAME": "1998-067XU", "OBJECT_ID": "1998-067XU", "EPOCH": "2025-12-13T19:42:27.196704", "MEAN_MOTION": 15.51709735, "ECCENTRICITY": 0.00044517, "INCLINATION": 51.6297, "RA_OF_ASC_NODE": 137.0108, "ARG_OF_PERICENTER": 232.0279, "MEAN_ANOMALY": 128.0309, "EPHEMERIS_TYPE": 0, "CLASSIFICATION_TYPE": "U", "NORAD_CAT_ID": 66908, "ELEMENT_SET_NO": 999, "REV_AT_EPOCH": 178, "BSTAR": 0.0012120961, "MEAN_MOTION_DOT": 0.0007376, "MEAN_MOTION_DDOT": 0}, "tle": {"line1": "1 66908U 98067XU  25347.82114811  .00073760  00000+0  12121-2 0  9997", "line2": "2 66908  51.6297 137.0108 0004451 232.0279 128.0309 15.51709735  1782"}}, "geometry": {"type": "Point", "coordinates": [-130.6226258003241, 51.441139235399234]}}, {"type": "Feature", "properties": {"norad_id": 66909, "name": "SILVERSAT", "group": "last-30-days", "lat": 51.114804931123224, "lon": -126.16588935793662, "alt_km": 406.27820591296677, "timestamp": "2025-12-14T14:39:28.134482+00:00", "meta": {"OBJECT_NAME": "SILVERSAT", "OBJECT_ID": "1998-067XV", "EPOCH": "2025-12-13T19:41:48.869664", "MEAN_MOTION": 15.51822369, "ECCENTRICITY": 0.00043322, "INCLINATION": 51.6299, "RA_OF_ASC_NODE": 137.0079, "ARG_OF_PERICENTER": 234.1355, "MEAN_ANOMALY": 125.9233, "EPHEMERIS_TYPE": 0, "CLASSIFICATION_TYPE": "U", "NORAD_CAT_ID": 66909, "ELEMENT_SET_NO": 999, "REV_AT_EPOCH": 178, "BSTAR": 0.0012407437, "MEAN_MOTION_DOT": 0.0007584, "MEAN_MOTION_DDOT": 0}, "tle": {"line1": "1 66909U 98067XV  25347.82070451  .00075840  00000+0  12407-2 0  9997", "line2": "2 66909  51.6299 137.0079 0004332 234.1355 125.9233 15.51822369  1789"}}, "geometry": {"type": "Point", "coordinates": [-126.16588935793662, 51.114804931123224]}}, {"type": "Feature", "properties": {"norad_id": 66910, "name": "1998-067XW", "group": "last-30-days", "lat": 48.95154364434188, "lon": -112.42905986427189, "alt_km": 405.2948282661355, "timestamp": "2025-12-14T14:39:28.134492+00:00", "meta": {"OBJECT_NAME": "1998-067XW", "OBJECT_ID": "1998-067XW", "EPOCH": "2025-12-13T19:39:33.068736", "MEAN_MOTION": 15.51931188, "ECCENTRICITY": 0.00050672, "INCLINATION": 51.6298, "RA_OF_ASC_NODE": 136.9978, "ARG_OF_PERICENTER": 214.3383, "MEAN_ANOMALY": 145.728, "EPHEMERIS_TYPE": 0, "CLASSIFICATION_TYPE": "U", "NORAD_CAT_ID": 66910, "ELEMENT_SET_NO": 999, "REV_AT_EPOCH": 178, "BSTAR": 0.0011247598, "MEAN_MOTION_DOT": 0.00068924, "MEAN_MOTION_DDOT": 0}, "tle": {"line1": "1 66910U 98067XW  25347.81913274  .00068924  00000+0  11248-2 0  9994", "line2": "2 66910  51.6298 136.9978 0005067 214.3383 145.7280 15.51931188  1785"}}, "geometry": {"type": "Point", "coordinates": [-112.42905986427189, 48.95154364434188]}}, {"type": "Feature", "properties": {"norad_id": 66911, "name": "1998-067XX", "group": "last-30-days", "lat": 46.752392304379605, "lon": -104.33643558070058, "alt_km": 404.4612590921979, "timestamp": "2025-12-14T14:39:28.134505+00:00", "meta": {"OBJECT_NAME": "1998-067XX", "OBJECT_ID": "1998-067XX", "EPOCH": "2025-12-13T16:32:49.998912", "MEAN_MOTION": 15.52189321, "ECCENTRICITY": 0.00048024, "INCLINATION": 51.6299, "RA_OF_ASC_NODE": 137.6321, "ARG_OF_PERICENTER": 215.3057, "MEAN_ANOMALY": 144.7616, "EPHEMERIS_TYPE": 0, "CLASSIFICATION_TYPE": "U", "NORAD_CAT_ID": 66911, "ELEMENT_SET_NO": 999, "REV_AT_EPOCH": 175, "BSTAR": 0.0012499181, "MEAN_MOTION_DOT": 0.00077443, "MEAN_MOTION_DDOT": 0}, "tle": {"line1": "1 66911U 98067XX  25347.68946758  .00077443  00000+0  12499-2 0  9998", "line2": "2 66911  51.6299 137.6321 0004802 215.3057 144.7616 15.52189321  1756"}}, "geometry": {"type": "Point", "coordinates": [-104.33643558070058, 46.752392304379605]}}, {"type": "Feature", "properties": {"norad_id": 66912, "name": "1998-067XY", "group": "last-30-days", "lat": 51.19060409600277, "lon": -146.79777557254826, "alt_km": 408.293603790682, "timestamp": "2025-12-14T14:39:28.134515+00:00", "meta": {"OBJECT_NAME": "1998-067XY", "OBJECT_ID": "1998-067XY", "EPOCH": "2025-12-13T19:44:43.483200", "MEAN_MOTION": 15.51274122, "ECCENTRICITY": 0.00044845, "INCLINATION": 51.6301, "RA_OF_ASC_NODE": 137.0214, "ARG_OF_PERICENTER": 229.4875, "MEAN_ANOMALY": 130.5724, "EPHEMERIS_TYPE": 0, "CLASSIFICATION_TYPE": "U", "NORAD_CAT_ID": 66912, "ELEMENT_SET_NO": 999, "REV_AT_EPOCH": 177, "BSTAR": 0.00093164651, "MEAN_MOTION_DOT": 0.00055577, "MEAN_MOTION_DDOT": 0}, "tle": {"line1": "1 66912U 98067XY  25347.82272550  .00055577  00000+0  93165-3 0  9991", "line2": "2 66912  51.6301 137.0214 0004484 229.4875 130.5724 15.51274122  1774"}}, "geometry": {"type": "Point", "coordinates": [-146.79777557254826, 51.19060409600277]}}, {"type": "Feature", "properties": {"norad_id": 66913, "name": "2025-284A", "group": "last-30-days", "lat": -25.13673360799676, "lon": -48.053830021092594, "alt_km": 506.22577909977554, "timestamp": "2025-12-14T14:39:28.134525+00:00", "meta": {"OBJECT_NAME": "2025-284A", "OBJECT_ID": "2025-284A", "EPOCH": "2025-12-13T21:56:48.752160", "MEAN_MOTION": 15.18996225, "ECCENTRICITY": 0.00120221, "INCLINATION": 80.4041, "RA_OF_ASC_NODE": 128.2757, "ARG_OF_PERICENTER": 200.8697, "MEAN_ANOMALY": 159.2041, "EPHEMERIS_TYPE": 0, "CLASSIFICATION_TYPE": "U", "NORAD_CAT_ID": 66913, "ELEMENT_SET_NO": 999, "REV_AT_EPOCH": 130, "BSTAR": 0.00049777913, "MEAN_MOTION_DOT": 0.00010457, "MEAN_MOTION_DDOT": 0}, "tle": {"line1": "1 66913U 25284A   25347.91445315  .00010457  00000+0  49778-3 0  9993", "line2": "2 66913  80.4041 128.2757 0012022 200.8697 159.2041 15.18996225  1309"}}, "geometry": {"type": "Point", "coordinates": [-48.053830021092594, -25.13673360799676]}}, {"type": "Feature", "properties": {"norad_id": 66914, "name": "2025-284B", "group": "last-30-days", "lat": -26.83908761439952, "lon": -47.695263737517166, "alt_km": 509.968416522559, "timestamp": "2025-12-14T14:39:28.134539+00:00", "meta": {"OBJECT_NAME": "2025-284B", "OBJECT_ID": "2025-284B", "EPOCH": "2025-12-13T23:31:09.278400", "MEAN_MOTION": 15.18948217, "ECCENTRICITY": 0.00083128, "INCLINATION": 80.4049, "RA_OF_ASC_NODE": 128.1938, "ARG_OF_PERICENTER": 243.0772, "MEAN_ANOMALY": 116.9607, "EPHEMERIS_TYPE": 0, "CLASSIFICATION_TYPE": "U", "NORAD_CAT_ID": 66914, "ELEMENT_SET_NO": 999, "REV_AT_EPOCH": 131, "BSTAR": 0.00048965614, "MEAN_MOTION_DOT": 0.00010262, "MEAN_MOTION_DDOT": 0}, "tle": {"line1": "1 66914U 25284B   25347.97996850  .00010262  00000+0  48966-3 0  9997", "line2": "2 66914  80.4049 128.1938 0008312 243.0772 116.9607 15.18948217  1315"}}, "geometry": {"type": "Point", "coordinates": [-47.695263737517166, -26.83908761439952]}}, {"type": "Feature", "properties": {"norad_id": 66915, "name": "HULIANWANG DIGUI-105", "group": "last-30-days", "lat": -46.49386018100325, "lon": 47.46735878895176, "alt_km": 879.5487380650193, "timestamp": "2025-12-14T14:39:28.134552+00:00", "meta": {"OBJECT_NAME": "HULIANWANG DIGUI-105", "OBJECT_ID": "2025-285A", "EPOCH": "2025-12-13T23:37:06.339360", "MEAN_MOTION": 14.03715558, "ECCENTRICITY": 0.00079422, "INCLINATION": 50.0042, "RA_OF_ASC_NODE": 112.205, "ARG_OF_PERICENTER": 286.9205, "MEAN_ANOMALY": 73.0828, "EPHEMERIS_TYPE": 0, "CLASSIFICATION_TYPE": "U", "NORAD_CAT_ID": 66915, "ELEMENT_SET_NO": 999, "REV_AT_EPOCH": 108, "BSTAR": 0.00013537033, "MEAN_MOTION_DOT": 6.3e-07, "MEAN_MOTION_DDOT": 0}, "tle": {"line1": "1 66915U 25285A   25347.98410115  .00000063  00000+0  13537-3 0  9999", "line2": "2 66915  50.0042 112.2050 0007942 286.9205  73.0828 14.03715558  1081"}}, "geometry": {"type": "Point", "coordinates": [47.46735878895176, -46.49386018100325]}}]}